[Satellite]
VERSION=1.1
NAME=CZ-6A DEB
NICKNAME=CZ-6A DEB
TLE1=1 54312U 22151BF  22342.21236607  .00001912  00000+0  91684-3 0  9999
TLE2=2 54312  98.9682 348.1981 0024214 253.4770 106.3745 14.20066761  3163
STATUS=0
